[{"OBJECT_NAME":"ICEYE-X6","OBJECT_ID":"2020-068M","EPOCH":"2026-03-09T22:38:15.311328","MEAN_MOTION":15.03906063,"ECCENTRICITY":0.00090855,"INCLINATION":98.0946,"RA_OF_ASC_NODE":57.9399,"ARG_OF_PERICENTER":68.4739,"MEAN_ANOMALY":291.7454,"EPHEMERIS_TYPE":0,"CLASSIFICATION_TYPE":"U","NORAD_CAT_ID":46497,"ELEMENT_SET_NO":999,"REV_AT_EPOCH":29831,"BSTAR":0.00025875904,"MEAN_MOTION_DOT":3.502e-5,"MEAN_MOTION_DDOT":0},{"OBJECT_NAME":"STARLINK-4426","OBJECT_ID":"2022-099V","EPOCH":"2026-03-09T20:59:05.066016","MEAN_MOTION":15.05654177,"ECCENTRICITY":5.881e-5,"INCLINATION":97.6033,"RA_OF_ASC_NODE":191.3741,"ARG_OF_PERICENTER":182.7659,"MEAN_ANOMALY":177.3565,"EPHEMERIS_TYPE":0,"CLASSIFICATION_TYPE":"U","NORAD_CAT_ID":53484,"ELEMENT_SET_NO":999,"REV_AT_EPOCH":19607,"BSTAR":0.00015015842,"MEAN_MOTION_DOT":2.107e-5,"MEAN_MOTION_DDOT":0}]
